KUIPER-00176            
1 65788U 25217AC  26009.12186992  .00001915  00000+0  28017-3 0  9992
2 65788  51.9007 306.5116 0001135  97.4918 262.6174 14.79924501 16050
KUIPER-00101            
1 65947U 25228A   26008.99887002 -.00005547  00000+0 -69926-3 0  9996
2 65947  51.8974 264.5420 0000934  76.4143 283.6923 14.79926539 14396
KUIPER-00113            
1 65948U 25228B   26009.33336806 -.00052349  00000+0 -66848-2 0  9998
2 65948  51.8967 258.0960 0000591  94.0171  32.1944 14.81205054  4677
KUIPER-00117            
1 65949U 25228C   26009.00162140  .00002599  00000+0  36967-3 0  9991
2 65949  51.8982 262.0500 0001056 108.4862 251.6215 14.79955779 14420
KUIPER-00121            
1 65950U 25228D   26009.33336806 -.00053854  00000+0 -69520-2 0  9993
2 65950  51.8984 255.4236 0001042 101.8196  93.5981 14.80766257  3859
KUIPER-00122            
1 65951U 25228E   26008.96238767 -.00002797  00000+0 -33824-3 0  9998
2 65951  51.8998 267.1929 0001413 102.1265 257.9856 14.79899413 14350
KUIPER-00124            
1 65953U 25228G   26008.93682412  .00002542  00000+0  36222-3 0  9998
2 65953  51.8972 259.8168 0000804  97.4556 262.6498 14.79940372 14456
